{"dragon": {"capsule": null, "mass_returned_kg": null, "mass_returned_lbs": null, "flight_time_sec": null, "manifest": null, "water_landing": null, "land_landing": null}, "name": "Starlink-1", "type": "Satellite", "reused": false, "launch": "5eb87d39ffd86e000604b37d", "customers": ["SpaceX"], "norad_ids": [44713, 44714, 44715, 44716, 44717, 44718, 44719, 44720, 44721, 44722, 44723, 44724, 44725, 44726, 44727, 44728, 44729, 44730, 44731, 44732, 44733, 44734, 44735, 44736, 44737, 44738, 44739, 44740, 44741, 44742, 44743, 44744, 44745, 44746, 44747, 44748, 44749, 44750, 44751, 44752, 44753, 44754, 44755, 44756, 44757, 44758, 44759, 44760, 44761, 44762, 44763, 44764, 44765, 44766, 44767, 44768, 44769, 44770, 44771, 44772], "nationalities": ["United States"], "manufacturers": ["SpaceX"], "mass_kg": 15600, "mass_lbs": 34392, "orbit": "VLEO", "reference_system": "geocentric", "regime": "very-low-earth", "longitude": null, "semi_major_axis_km": 6925.345, "eccentricity": 0.0001306, "periapsis_km": 546.306, "apoapsis_km": 548.115, "inclination_deg": 53.0527, "period_min": 95.592, "lifespan_years": null, "epoch": "2022-01-29T13:20:54.000Z", "mean_motion": 15.06401032, "raan": 80.9821, "arg_of_pericenter": 79.117, "mean_anomaly": 280.9966, "id": "5eb0e4cfb6c3bb0006eeb24c"}